NORAD_CAT_ID,OBJECT_NAME,OBJECT_TYPE,EPOCH,MEAN_MOTION,ECCENTRICITY,INCLINATION,RA_OF_ASC_NODE,ARG_OF_PERICENTER,MEAN_ANOMALY,BSTAR,MEAN_MOTION_DOT,MEAN_MOTION_DDOT,TLE_LINE0,TLE_LINE1,TLE_LINE2,SEMIMAJOR_AXIS,PERIOD,APOGEE,PERIGEE,DECAYED
51743.0,STARLINK-3512,PAYLOAD,2024-06-18 11:56:22,15.08839244,0.0001297,53.2146,253.598,97.2663,262.8477,0.000152,2.132e-05,0.0,0 STARLINK-3512,1 51743U 22016AF  24170.49747908  .00002132  00000-0  15200-3 0  9992,2 51743  53.2146 253.5980 0001297  97.2663 262.8477 15.08839244128716,6917.883,95.438,540.645,538.85,0.0
51743.0,STARLINK-3512,PAYLOAD,2024-06-19 11:47:09,15.08834761,0.0001158,53.2161,249.1383,87.7402,272.3723,0.00013193,1.812e-05,0.0,0 STARLINK-3512,1 51743U 22016AF  24171.49108517  .00001812  00000-0  13193-3 0  9993,2 51743  53.2161 249.1383 0001158  87.7402 272.3723 15.08834761130006,6917.896,95.438,540.562,538.96,0.0
51743.0,STARLINK-3512,PAYLOAD,2024-06-19 14:57:55,15.08841471,0.0001231,53.2159,248.5411,91.6068,268.5065,0.00010732,1.421e-05,0.0,0 STARLINK-3512,1 51743U 22016AF  24171.62356140  .00001421  00000-0  10732-3 0  9997,2 51743  53.2159 248.5411 0001231  91.6068 268.5065 15.08841471128887,6917.876,95.437,540.592,538.889,0.0
51743.0,STARLINK-3512,PAYLOAD,2024-06-20 11:37:56,15.08847139,0.0001193,53.2155,244.6756,79.9267,280.186,0.00015293,2.147e-05,0.0,0 STARLINK-3512,1 51743U 22016AF  24172.48468130  .00002147  00000-0  15293-3 0  9998,2 51743  53.2155 244.6756 0001193  79.9267 280.1860 15.08847139129015,6917.859,95.437,540.549,538.898,0.0
51743.0,STARLINK-3512,PAYLOAD,2024-06-20 14:48:42,15.08847,0.0001267,53.2157,244.0808,82.598,277.5156,0.00014631,2.042e-05,0.0,0 STARLINK-3512,1 51743U 22016AF  24172.61716065  .00002042  00000-0  14631-3 0  9995,2 51743  53.2157 244.0808 0001267  82.5980 277.5156 15.08847000129030,6917.859,95.437,540.6,538.848,0.0
51743.0,STARLINK-3512,PAYLOAD,2024-06-21 05:07:11,15.08843311,0.0001197,53.2154,241.4041,76.7619,283.3507,5.2183e-05,5.43e-06,0.0,0 STARLINK-3512,1 51743U 22016AF  24173.21332202  .00000543  00000-0  52183-4 0  9998,2 51743  53.2154 241.4041 0001197  76.7619 283.3507 15.08843311130266,6917.87,95.437,540.563,538.907,0.0
51743.0,STARLINK-3512,PAYLOAD,2024-06-21 11:28:43,15.0884489,0.0001146,53.2162,240.2144,76.7834,283.3286,7.6328e-05,9.27e-06,0.0,0 STARLINK-3512,1 51743U 22016AF  24173.47828116  .00000927  00000-0  76328-4 0  9993,2 51743  53.2162 240.2144 0001146  76.7834 283.3286 15.08844890129163,6917.865,95.437,540.523,538.938,0.0
51743.0,STARLINK-3512,PAYLOAD,2024-06-22 04:57:58,15.08801056,0.0001358,53.2159,236.9439,78.4863,281.6281,0.00049323,7.562e-05,0.0,0 STARLINK-3512,1 51743U 22016AF  24174.20693199  .00007562  00000-0  49323-3 0  9992,2 51743  53.2159 236.9439 0001358  78.4863 281.6281 15.08801056130417,6917.999,95.44,540.804,538.925,0.0
51743.0,STARLINK-3512,PAYLOAD,2024-06-22 11:19:31,15.08835022,0.0001177,53.2161,235.7544,73.4283,286.6838,-3.3362e-05,-8.19e-06,0.0,0 STARLINK-3512,1 51743U 22016AF  24174.47188981 -.00000819  00000-0 -33362-4 0  9996,2 51743  53.2161 235.7544 0001177  73.4283 286.6838 15.08835022130451,6917.896,95.438,540.575,538.946,0.0
51743.0,STARLINK-3512,PAYLOAD,2024-06-23 12:45:40,15.08843435,0.000116,53.2164,230.9991,88.4116,271.7009,7.5608e-05,9.16e-06,0.0,0 STARLINK-3512,1 51743U 22016AF  24175.53172229  .00000916  00000-0  75608-4 0  9997,2 51743  53.2164 230.9991 0001160  88.4116 271.7009 15.08843435130610,6917.87,95.437,540.537,538.932,0.0
51743.0,STARLINK-3512,PAYLOAD,2024-06-23 14:21:03,15.08843954,0.0001154,53.2163,230.7014,87.5665,272.546,7.8418e-05,9.61e-06,0.0,0 STARLINK-3512,1 51743U 22016AF  24175.59796178  .00000961  00000-0  78418-4 0  9990,2 51743  53.2163 230.7014 0001154  87.5665 272.5460 15.08843954129484,6917.868,95.437,540.532,538.935,0.0
51743.0,STARLINK-3512,PAYLOAD,2024-06-24 11:01:03,15.08874214,0.0001282,53.216,226.8356,88.056,272.0579,-0.00025066,-4.279e-05,0.0,0 STARLINK-3512,1 51743U 22016AF  24176.45907096 -.00004279  00000-0 -25066-3 0  9997,2 51743  53.2160 226.8356 0001282  88.0560 272.0579 15.08874214130759,6917.776,95.435,540.528,538.754,0.0
51743.0,STARLINK-3512,PAYLOAD,2024-06-25 09:16:28,15.08841772,0.0001265,53.2161,222.6722,81.9187,278.1949,1.1794e-05,-1e-06,0.0,0 STARLINK-3512,1 51743U 22016AF  24177.38644481 -.00000100  00000-0  11794-4 0  9998,2 51743  53.2161 222.6722 0001265  81.9187 278.1949 15.08841772130895,6917.875,95.437,540.615,538.865,0.0
51743.0,STARLINK-3512,PAYLOAD,2024-06-26 09:07:15,15.0884701,0.0001284,53.2153,218.2119,88.3248,271.7891,3.1407e-05,2.12e-06,0.0,0 STARLINK-3512,1 51743U 22016AF  24178.38003855  .00000212  00000-0  31407-4 0  9999,2 51743  53.2153 218.2119 0001284  88.3248 271.7891 15.08847010129903,6917.859,95.437,540.612,538.836,0.0
51743.0,STARLINK-3512,PAYLOAD,2024-06-27 08:58:02,15.08838102,0.0001366,53.215,213.7504,110.0997,250.0142,2.4244e-05,9.8e-07,0.0,0 STARLINK-3512,1 51743U 22016AF  24179.37364364  .00000098  00000-0  24244-4 0  9997,2 51743  53.2150 213.7504 0001366 110.0997 250.0142 15.08838102131198,6917.886,95.438,540.696,538.806,0.0
51743.0,STARLINK-3512,PAYLOAD,2024-06-28 13:34:59,15.08842229,0.0001292,53.2149,208.3989,93.1759,266.9381,7.6749e-05,9.34e-06,0.0,0 STARLINK-3512,1 51743U 22016AF  24180.56596288  .00000934  00000-0  76749-4 0  9998,2 51743  53.2149 208.3989 0001292  93.1759 266.9381 15.08842229130238,6917.874,95.437,540.632,538.845,0.0
51743.0,STARLINK-3512,PAYLOAD,2024-06-29 08:39:35,15.08861519,0.0001406,53.216,204.8323,107.4676,252.647,0.00026937,4.004e-05,0.0,0 STARLINK-3512,1 51743U 22016AF  24181.36082718  .00004004  00000-0  26937-3 0  9990,2 51743  53.2160 204.8323 0001406 107.4676 252.6470 15.08861519131491,6917.815,95.436,540.652,538.707,0.0
51743.0,STARLINK-3512,PAYLOAD,2024-06-29 18:11:54,15.08852545,0.0001528,53.2152,203.0457,75.0327,285.0834,0.00021267,3.099e-05,0.0,0 STARLINK-3512,1 51743U 22016AF  24181.75827266  .00003099  00000-0  21267-3 0  9992,2 51743  53.2152 203.0457 0001528  75.0327 285.0834 15.08852545131559,6917.842,95.437,540.764,538.65,0.0
51743.0,STARLINK-3512,PAYLOAD,2024-06-30 05:19:38,15.08826157,0.0001142,53.2149,200.9648,85.2102,274.9021,-7.1833e-05,-1.43e-05,0.0,0 STARLINK-3512,1 51743U 22016AF  24182.22197714 -.00001430  00000-0 -71833-4 0  9997,2 51743  53.2149 200.9648 0001142  85.2102 274.9021 15.08826157131622,6917.923,95.438,540.578,538.998,0.0
51743.0,STARLINK-3512,PAYLOAD,2024-06-30 08:30:25,15.08826678,0.0001149,53.215,200.3705,85.096,275.0163,-6.8463e-05,-1.377e-05,0.0,0 STARLINK-3512,1 51743U 22016AF  24182.35445748 -.00001377  00000-0 -68463-4 0  9999,2 51743  53.2150 200.3705 0001149  85.0960 275.0163 15.08826678130502,6917.921,95.438,540.581,538.991,0.0
51743.0,STARLINK-3512,PAYLOAD,2024-06-30 18:02:43,15.08829576,0.0001196,53.2157,198.5861,83.5298,276.583,-4.9365e-05,-1.073e-05,0.0,0 STARLINK-3512,1 51743U 22016AF  24182.75189752 -.00001073  00000-0 -49365-4 0  9996,2 51743  53.2157 198.5861 0001196  83.5298 276.5830 15.08829576130562,6917.912,95.438,540.605,538.95,0.0
51743.0,STARLINK-3512,PAYLOAD,2024-07-01 05:10:25,15.08847987,0.0001031,53.215,196.5041,84.0833,276.0276,-0.00022308,-3.837e-05,0.0,0 STARLINK-3512,1 51743U 22016AF  24183.21557541 -.00003837  00000-0 -22308-3 0  9990,2 51743  53.2150 196.5041 0001031  84.0833 276.0276 15.08847987131771,6917.856,95.437,540.434,539.008,0.0
51743.0,STARLINK-3512,PAYLOAD,2024-07-01 09:56:34,15.088489,0.0001018,53.2151,195.6121,84.5517,275.5591,-0.00020287,-3.516e-05,0.0,0 STARLINK-3512,1 51743U 22016AF  24183.41429327 -.00003516  00000-0 -20287-3 0  9990,2 51743  53.2151 195.6121 0001018  84.5517 275.5591 15.08848900130667,6917.853,95.437,540.422,539.014,0.0
51743.0,STARLINK-3512,PAYLOAD,2024-07-01 17:53:30,15.08850739,0.0001049,53.2152,194.1251,123.4463,236.6629,-0.00019371,-3.37e-05,0.0,0 STARLINK-3512,1 51743U 22016AF  24183.74548888 -.00003370  00000-0 -19371-3 0  9990,2 51743  53.2152 194.1251 0001049 123.4463 236.6629 15.08850739130712,6917.848,95.437,540.438,538.987,0.0
51743.0,STARLINK-3512,PAYLOAD,2024-07-02 05:01:13,15.08829659,0.0001108,53.2152,192.0434,74.9572,285.1543,0.0002061,2.993e-05,0.0,0 STARLINK-3512,1 51743U 22016AF  24184.20917869  .00002993  00000-0  20610-3 0  9997,2 51743  53.2152 192.0434 0001108  74.9572 285.1543 15.08829659131924,6917.912,95.438,540.544,539.01,0.0
51743.0,STARLINK-3512,PAYLOAD,2024-07-02 08:11:59,15.08833039,0.00011,53.2151,191.4482,73.9069,286.2045,0.00020859,3.033e-05,0.0,0 STARLINK-3512,1 51743U 22016AF  24184.34165851  .00003033  00000-0  20859-3 0  9999,2 51743  53.2151 191.4482 0001100  73.9069 286.2045 15.08833039130803,6917.902,95.438,540.528,539.006,0.0
51743.0,STARLINK-3512,PAYLOAD,2024-07-03 04:51:59,15.08844102,0.0001133,53.2141,187.5819,72.9377,287.1739,0.00024285,3.58e-05,0.0,0 STARLINK-3512,1 51743U 22016AF  24185.20277598  .00003580  00000-0  24285-3 0  9991,2 51743  53.2141 187.5819 0001133  72.9377 287.1739 15.08844102132073,6917.868,95.437,540.517,538.949,0.0
51743.0,STARLINK-3512,PAYLOAD,2024-07-03 17:35:04,15.08848745,0.000109,53.2138,185.2017,73.941,286.1702,0.00022447,3.287e-05,0.0,0 STARLINK-3512,1 51743U 22016AF  24185.73269231  .00003287  00000-0  22447-3 0  9996,2 51743  53.2138 185.2017 0001090  73.9410 286.1702 15.08848745131014,6917.854,95.437,540.473,538.965,0.0
51743.0,STARLINK-3512,PAYLOAD,2024-07-04 06:18:09,15.08847451,0.0001166,53.214,182.8244,76.0447,284.0674,0.00014684,2.05e-05,0.0,0 STARLINK-3512,1 51743U 22016AF  24186.26261164  .00002050  00000-0  14684-3 0  9993,2 51743  53.2140 182.8244 0001166  76.0447 284.0674 15.08847451132233,6917.858,95.437,540.529,538.916,0.0
51743.0,STARLINK-3512,PAYLOAD,2024-07-04 17:25:51,15.088474,0.0001174,53.2137,180.7428,75.6975,284.4147,8.4369e-05,1.055e-05,0.0,0 STARLINK-3512,1 51743U 22016AF  24186.72628952  .00001055  00000-0  84369-4 0  9998,2 51743  53.2137 180.7428 0001174  75.6975 284.4147 15.08847400131164,6917.858,95.437,540.535,538.911,0.0
